{"fetched_at":"2026-07-12T17:32:50.781Z","source":"https://celestrak.org/NORAD/elements/gp.php?NAME=JILIN&FORMAT=JSON","constellation":"jilin-1-gaofen","records":[{"OBJECT_NAME":"JILIN-1 GAOFEN 3A","OBJECT_ID":"2019-032C","EPOCH":"2026-07-12T12:00:17.623872","CLASSIFICATION_TYPE":"U","MEAN_MOTION":15.3315593,"ECCENTRICITY":0.0004692,"INCLINATION":44.9729,"RA_OF_ASC_NODE":217.5664,"ARG_OF_PERICENTER":84.2828,"MEAN_ANOMALY":275.8592,"EPHEMERIS_TYPE":0,"NORAD_CAT_ID":44312,"ELEMENT_SET_NO":999,"REV_AT_EPOCH":39172,"BSTAR":0.00017833,"MEAN_MOTION_DOT":0.00005515,"MEAN_MOTION_DDOT":0},{"OBJECT_NAME":"JILIN-1 GAOFEN 2A","OBJECT_ID":"2019-075A","EPOCH":"2026-07-12T11:34:08.726016","CLASSIFICATION_TYPE":"U","MEAN_MOTION":15.39967186,"ECCENTRICITY":0.0005442,"INCLINATION":97.4968,"RA_OF_ASC_NODE":277.8737,"ARG_OF_PERICENTER":5.2631,"MEAN_ANOMALY":354.8671,"EPHEMERIS_TYPE":0,"NORAD_CAT_ID":44777,"ELEMENT_SET_NO":999,"REV_AT_EPOCH":36877,"BSTAR":0.00021461,"MEAN_MOTION_DOT":0.0000847,"MEAN_MOTION_DDOT":0},{"OBJECT_NAME":"JILIN-1 GAOFEN 2B","OBJECT_ID":"2019-086A","EPOCH":"2026-07-12T11:28:37.634304","CLASSIFICATION_TYPE":"U","MEAN_MOTION":15.20980718,"ECCENTRICITY":0.001299,"INCLINATION":97.4877,"RA_OF_ASC_NODE":265.3134,"ARG_OF_PERICENTER":225.9716,"MEAN_ANOMALY":134.045,"EPHEMERIS_TYPE":0,"NORAD_CAT_ID":44836,"ELEMENT_SET_NO":999,"REV_AT_EPOCH":36433,"BSTAR":0.00016162,"MEAN_MOTION_DOT":0.00003518,"MEAN_MOTION_DDOT":0},{"OBJECT_NAME":"JILIN-1 GAOFEN 3E","OBJECT_ID":"2020-065D","EPOCH":"2026-07-12T11:22:58.548000","CLASSIFICATION_TYPE":"U","MEAN_MOTION":15.66940476,"ECCENTRICITY":0.001069,"INCLINATION":97.2221,"RA_OF_ASC_NODE":246.7226,"ARG_OF_PERICENTER":80.8173,"MEAN_ANOMALY":279.4296,"EPHEMERIS_TYPE":0,"NORAD_CAT_ID":46457,"ELEMENT_SET_NO":999,"REV_AT_EPOCH":32371,"BSTAR":0.00048346,"MEAN_MOTION_DOT":0.00051473,"MEAN_MOTION_DDOT":0},{"OBJECT_NAME":"JILIN-1 GAOFEN 3F","OBJECT_ID":"2020-065E","EPOCH":"2026-07-12T10:03:40.779936","CLASSIFICATION_TYPE":"U","MEAN_MOTION":15.63699352,"ECCENTRICITY":0.0012033,"INCLINATION":97.2177,"RA_OF_ASC_NODE":243.8723,"ARG_OF_PERICENTER":67.4849,"MEAN_ANOMALY":292.7683,"EPHEMERIS_TYPE":0,"NORAD_CAT_ID":46458,"ELEMENT_SET_NO":999,"REV_AT_EPOCH":32364,"BSTAR":0.00045958,"MEAN_MOTION_DOT":0.00043,"MEAN_MOTION_DDOT":0},{"OBJECT_NAME":"JILIN-1 GAOFEN 3G","OBJECT_ID":"2020-065F","EPOCH":"2026-07-12T10:55:10.246080","CLASSIFICATION_TYPE":"U","MEAN_MOTION":15.76425834,"ECCENTRICITY":0.0005055,"INCLINATION":97.2237,"RA_OF_ASC_NODE":251.1757,"ARG_OF_PERICENTER":289.6535,"MEAN_ANOMALY":70.4186,"EPHEMERIS_TYPE":0,"NORAD_CAT_ID":46459,"ELEMENT_SET_NO":999,"REV_AT_EPOCH":32391,"BSTAR":0.0006062,"MEAN_MOTION_DOT":0.00096424,"MEAN_MOTION_DDOT":0},{"OBJECT_NAME":"JILIN-1 GAOFEN 3H","OBJECT_ID":"2020-065G","EPOCH":"2026-07-12T10:14:35.602080","CLASSIFICATION_TYPE":"U","MEAN_MOTION":15.71877191,"ECCENTRICITY":0.0005971,"INCLINATION":97.2181,"RA_OF_ASC_NODE":247.3029,"ARG_OF_PERICENTER":211.6781,"MEAN_ANOMALY":148.4124,"EPHEMERIS_TYPE":0,"NORAD_CAT_ID":46460,"ELEMENT_SET_NO":999,"REV_AT_EPOCH":32384,"BSTAR":0.00055886,"MEAN_MOTION_DOT":0.00072949,"MEAN_MOTION_DDOT":0},{"OBJECT_NAME":"JILIN-1 GAOFEN 2D","OBJECT_ID":"2021-086A","EPOCH":"2026-07-12T12:39:46.321344","CLASSIFICATION_TYPE":"U","MEAN_MOTION":15.1085394,"ECCENTRICITY":0.0034248,"INCLINATION":97.6502,"RA_OF_ASC_NODE":316.2345,"ARG_OF_PERICENTER":59.5401,"MEAN_ANOMALY":300.9203,"EPHEMERIS_TYPE":0,"NORAD_CAT_ID":49256,"ELEMENT_SET_NO":999,"REV_AT_EPOCH":26454,"BSTAR":0.00013288,"MEAN_MOTION_DOT":0.00002173,"MEAN_MOTION_DDOT":0},{"OBJECT_NAME":"JILIN-1 GAOFEN 2F","OBJECT_ID":"2021-097A","EPOCH":"2026-07-12T12:25:55.994016","CLASSIFICATION_TYPE":"U","MEAN_MOTION":15.0793435,"ECCENTRICITY":0.0019668,"INCLINATION":97.6722,"RA_OF_ASC_NODE":319.661,"ARG_OF_PERICENTER":138.3707,"MEAN_ANOMALY":221.9022,"EPHEMERIS_TYPE":0,"NORAD_CAT_ID":49338,"ELEMENT_SET_NO":999,"REV_AT_EPOCH":26013,"BSTAR":0.00013494,"MEAN_MOTION_DOT":0.00002016,"MEAN_MOTION_DDOT":0},{"OBJECT_NAME":"JILIN-1 GAOFEN 3D27","OBJECT_ID":"2022-048B","EPOCH":"2026-07-12T12:14:46.140864","CLASSIFICATION_TYPE":"U","MEAN_MOTION":15.82354325,"ECCENTRICITY":0.000507,"INCLINATION":97.5732,"RA_OF_ASC_NODE":309.8763,"ARG_OF_PERICENTER":251.1838,"MEAN_ANOMALY":108.888,"EPHEMERIS_TYPE":0,"NORAD_CAT_ID":52444,"ELEMENT_SET_NO":999,"REV_AT_EPOCH":23347,"BSTAR":0.00065583,"MEAN_MOTION_DOT":0.00136924,"MEAN_MOTION_DDOT":0},{"OBJECT_NAME":"JILIN-1 GAOFEN 3D28","OBJECT_ID":"2022-048C","EPOCH":"2026-07-12T12:17:32.411616","CLASSIFICATION_TYPE":"U","MEAN_MOTION":15.87137347,"ECCENTRICITY":0.0004833,"INCLINATION":97.567,"RA_OF_ASC_NODE":310.1607,"ARG_OF_PERICENTER":247.7124,"MEAN_ANOMALY":112.3634,"EPHEMERIS_TYPE":0,"NORAD_CAT_ID":52445,"ELEMENT_SET_NO":999,"REV_AT_EPOCH":23353,"BSTAR":0.00068766,"MEAN_MOTION_DOT":0.00181111,"MEAN_MOTION_DDOT":0},{"OBJECT_NAME":"JILIN-1 GAOFEN 3D29","OBJECT_ID":"2022-048D","EPOCH":"2026-07-12T13:24:37.249344","CLASSIFICATION_TYPE":"U","MEAN_MOTION":15.82570956,"ECCENTRICITY":0.0004231,"INCLINATION":97.573,"RA_OF_ASC_NODE":310.2944,"ARG_OF_PERICENTER":232.261,"MEAN_ANOMALY":127.8275,"EPHEMERIS_TYPE":0,"NORAD_CAT_ID":52446,"ELEMENT_SET_NO":999,"REV_AT_EPOCH":23350,"BSTAR":0.0007019,"MEAN_MOTION_DOT":0.00148188,"MEAN_MOTION_DDOT":0},{"OBJECT_NAME":"JILIN-1 GAOFEN 3D31","OBJECT_ID":"2022-048F","EPOCH":"2026-07-12T11:29:22.729920","CLASSIFICATION_TYPE":"U","MEAN_MOTION":15.92564946,"ECCENTRICITY":0.0005181,"INCLINATION":97.5686,"RA_OF_ASC_NODE":311.5107,"ARG_OF_PERICENTER":241.5671,"MEAN_ANOMALY":118.5081,"EPHEMERIS_TYPE":0,"NORAD_CAT_ID":52448,"ELEMENT_SET_NO":999,"REV_AT_EPOCH":23359,"BSTAR":0.00071075,"MEAN_MOTION_DOT":0.00240479,"MEAN_MOTION_DDOT":0.000023902},{"OBJECT_NAME":"JILIN-1 GAOFEN 03D09","OBJECT_ID":"2022-098B","EPOCH":"2026-07-12T13:02:38.920128","CLASSIFICATION_TYPE":"U","MEAN_MOTION":15.69948132,"ECCENTRICITY":0.0003297,"INCLINATION":97.5623,"RA_OF_ASC_NODE":325.1837,"ARG_OF_PERICENTER":241.4624,"MEAN_ANOMALY":118.6305,"EPHEMERIS_TYPE":0,"NORAD_CAT_ID":53445,"ELEMENT_SET_NO":999,"REV_AT_EPOCH":21860,"BSTAR":0.00052642,"MEAN_MOTION_DOT":0.00063287,"MEAN_MOTION_DDOT":0},{"OBJECT_NAME":"JILIN-1 GAOFEN 03D43","OBJECT_ID":"2022-098E","EPOCH":"2026-07-12T12:37:06.267072","CLASSIFICATION_TYPE":"U","MEAN_MOTION":15.73627312,"ECCENTRICITY":0.0003483,"INCLINATION":97.5603,"RA_OF_ASC_NODE":326.3099,"ARG_OF_PERICENTER":235.3194,"MEAN_ANOMALY":124.7741,"EPHEMERIS_TYPE":0,"NORAD_CAT_ID":53448,"ELEMENT_SET_NO":999,"REV_AT_EPOCH":21867,"BSTAR":0.00054696,"MEAN_MOTION_DOT":0.00076871,"MEAN_MOTION_DDOT":0},{"OBJECT_NAME":"JILIN-1 GAOFEN 03D08","OBJECT_ID":"2022-155A","EPOCH":"2026-07-12T12:48:42.217344","CLASSIFICATION_TYPE":"U","MEAN_MOTION":15.67311017,"ECCENTRICITY":0.0004155,"INCLINATION":97.6224,"RA_OF_ASC_NODE":341.0153,"ARG_OF_PERICENTER":237.3084,"MEAN_ANOMALY":122.7775,"EPHEMERIS_TYPE":0,"NORAD_CAT_ID":54251,"ELEMENT_SET_NO":999,"REV_AT_EPOCH":20378,"BSTAR":0.00042266,"MEAN_MOTION_DOT":0.0004551,"MEAN_MOTION_DDOT":0}]}
