JILIN-1 GAOFEN 3A       
1 44312U 19032C   26193.50020398  .00005515  00000+0  17833-3 0  9997
2 44312  44.9729 217.5664 0004692  84.2828 275.8592 15.33155930391720
JILIN-1 GAOFEN 2A       
1 44777U 19075A   26193.48204544  .00008470  00000+0  21461-3 0  9998
2 44777  97.4968 277.8737 0005442   5.2631 354.8671 15.39967186368777
JILIN-1 GAOFEN 2B       
1 44836U 19086A   26193.47821336  .00003518  00000+0  16162-3 0  9999
2 44836  97.4877 265.3134 0012990 225.9716 134.0450 15.20980718364333
JILIN-1 GAOFEN 3E       
1 46457U 20065D   26193.47428875  .00051473  00000+0  48346-3 0  9992
2 46457  97.2221 246.7226 0010690  80.8173 279.4296 15.66940476323716
JILIN-1 GAOFEN 3F       
1 46458U 20065E   26193.41922199  .00043000  00000+0  45958-3 0  9998
2 46458  97.2177 243.8723 0012033  67.4849 292.7683 15.63699352323642
JILIN-1 GAOFEN 3G       
1 46459U 20065F   26193.45497970  .00096424  00000+0  60620-3 0  9998
2 46459  97.2237 251.1757 0005055 289.6535  70.4186 15.76425834323910
JILIN-1 GAOFEN 3H       
1 46460U 20065G   26193.42680095  .00072949  00000+0  55886-3 0  9993
2 46460  97.2181 247.3029 0005971 211.6781 148.4124 15.71877191323846
JILIN-1 GAOFEN 2D       
1 49256U 21086A   26193.52761946  .00002173  00000+0  13288-3 0  9991
2 49256  97.6502 316.2345 0034248  59.5401 300.9203 15.10853940264540
JILIN-1 GAOFEN 2F       
1 49338U 21097A   26193.51800919  .00002016  00000+0  13494-3 0  9992
2 49338  97.6722 319.6610 0019668 138.3707 221.9022 15.07934350260134
JILIN-1 GAOFEN 3D27     
1 52444U 22048B   26193.51025626  .00136924  00000+0  65583-3 0  9997
2 52444  97.5732 309.8763 0005070 251.1838 108.8880 15.82354325233470
JILIN-1 GAOFEN 3D28     
1 52445U 22048C   26193.51218069  .00181111  00000+0  68766-3 0  9997
2 52445  97.5670 310.1607 0004833 247.7124 112.3634 15.87137347233531
JILIN-1 GAOFEN 3D29     
1 52446U 22048D   26193.55876446  .00148188  00000+0  70190-3 0  9992
2 52446  97.5730 310.2944 0004231 232.2610 127.8275 15.82570956233506
JILIN-1 GAOFEN 3D31     
1 52448U 22048F   26193.47873530  .00240479  23902-4  71075-3 0  9996
2 52448  97.5686 311.5107 0005181 241.5671 118.5081 15.92564946233592
JILIN-1 GAOFEN 03D09    
1 53445U 22098B   26193.54350602  .00063287  00000+0  52642-3 0  9995
2 53445  97.5623 325.1837 0003297 241.4624 118.6305 15.69948132218607
JILIN-1 GAOFEN 03D43    
1 53448U 22098E   26193.52576698  .00076871  00000+0  54696-3 0  9995
2 53448  97.5603 326.3099 0003483 235.3194 124.7741 15.73627312218670
JILIN-1 GAOFEN 03D08    
1 54251U 22155A   26193.53382196  .00045510  00000+0  42266-3 0  9997
2 54251  97.6224 341.0153 0004155 237.3084 122.7775 15.67311017203781
